$$SOE
2459580.500000000, A.D. 2022-Jan-01 00:00:00.0000, -1.883766851650263E+08, -7.890941164612595E+08, -4.138165418142939E+07,
2459587.500000000, A.D. 2022-Jan-08 00:00:00.0000, -1.809577864961067E+08, -7.904836337902179E+08, -4.052251011813796E+07,
2459594.500000000, A.D. 2022-Jan-15 00:00:00.0000, -1.735225108750619E+08, -7.918014259560112E+08, -3.965968833596802E+07,
2459601.500000000, A.D. 2022-Jan-22 00:00:00.0000, -1.660715066776257E+08, -7.930472732017690E+08, -3.879326243111491E+07,
2459608.500000000, A.D. 2022-Jan-29 00:00:00.0000, -1.586054248458052E+08, -7.942209585890374E+08, -3.792330639674693E+07,
2459615.500000000, A.D. 2022-Feb-05 00:00:00.0000, -1.511249210679054E+08, -7.953222687157986E+08, -3.704989447305208E+07,
2459622.500000000, A.D. 2022-Feb-12 00:00:00.0000, -1.436306557844366E+08, -7.963509955028982E+08, -3.617310128227073E+07,
2459629.500000000, A.D. 2022-Feb-19 00:00:00.0000, -1.361232933447361E+08, -7.973069366800420E+08, -3.529300193371534E+07,
2459636.500000000, A.D. 2022-Feb-26 00:00:00.0000, -1.286035016257124E+08, -7.981898956943845E+08, -3.440967203775769E+07,
2459643.500000000, A.D. 2022-Mar-05 00:00:00.0000, -1.210719519534594E+08, -7.989996816585543E+08, -3.352318769404793E+07,
2459650.500000000, A.D. 2022-Mar-12 00:00:00.0000, -1.135293191059116E+08, -7.997361094037287E+08, -3.263362547997069E+07,
2459657.500000000, A.D. 2022-Mar-19 00:00:00.0000, -1.059762813254656E+08, -8.003989996095643E+08, -3.174106244386673E+07,
2459664.500000000, A.D. 2022-Mar-26 00:00:00.0000, -9.841352031915447E+07, -8.009881790167546E+08, -3.084557610584867E+07,
2459671.500000000, A.D. 2022-Apr-02 00:00:00.0000, -9.084172117858978E+07, -8.015034807778492E+08, -2.994724447725862E+07,
2459678.500000000, A.D. 2022-Apr-09 00:00:00.0000, -8.326157194765534E+07, -8.019447449412793E+08, -2.904614612353849E+07,
2459685.500000000, A.D. 2022-Apr-16 00:00:00.0000, -7.567376248087919E+07, -8.023118184142542E+08, -2.814236024999267E+07,
2459692.500000000, A.D. 2022-Apr-23 00:00:00.0000, -6.807898386140524E+07, -8.026045533199389E+08, -2.723596660556203E+07,
2459699.500000000, A.D. 2022-Apr-30 00:00:00.0000, -6.047793024864808E+07, -8.028228059937481E+08, -2.632704521663660E+07,
2459706.500000000, A.D. 2022-May-07 00:00:00.0000, -5.287130009269153E+07, -8.029664385920891E+08, -2.541567639319485E+07,
2459713.500000000, A.D. 2022-May-14 00:00:00.0000, -4.525979532589484E+07, -8.030353202754509E+08, -2.450194088648498E+07,
2459720.500000000, A.D. 2022-May-21 00:00:00.0000, -3.764412056278666E+07, -8.030293272072518E+08, -2.358591994995701E+07,
2459727.500000000, A.D. 2022-May-28 00:00:00.0000, -3.002498278711043E+07, -8.029483423272307E+08, -2.266769533786315E+07,
2459734.500000000, A.D. 2022-Jun-04 00:00:00.0000, -2.240309124896720E+07, -8.027922552121253E+08, -2.174734929247808E+07,
2459741.500000000, A.D. 2022-Jun-11 00:00:00.0000, -1.477915742740780E+07, -8.025609620212679E+08, -2.082496453298408E+07,
2459748.500000000, A.D. 2022-Jun-18 00:00:00.0000, -7.153895019766261E+06, -8.022543655135357E+08, -1.990062424841994E+07,
2459755.500000000, A.D. 2022-Jun-25 00:00:00.0000, 4.719800717585977E+05, -8.018723751685357E+08, -1.897441210001844E+07,
2459762.500000000, A.D. 2022-Jul-02 00:00:00.0000, 8.097749890390866E+06, -8.014149074774640E+08, -1.804641225049615E+07,
2459769.500000000, A.D. 2022-Jul-09 00:00:00.0000, 1.572269510227901E+07, -8.008818862264564E+08, -1.711670944149512E+07,
2459776.500000000, A.D. 2022-Jul-16 00:00:00.0000, 2.334609614604687E+07, -8.002732416894850E+08, -1.618538902546561E+07,
2459783.500000000, A.D. 2022-Jul-23 00:00:00.0000, 3.096723265596601E+07, -7.995889086529057E+08, -1.525253674379736E+07,
2459790.500000000, A.D. 2022-Jul-30 00:00:00.0000, 3.858538124288426E+07, -7.988288266253434E+08, -1.431823853278601E+07,
2459797.500000000, A.D. 2022-Aug-06 00:00:00.0000, 4.619981523182831E+07, -7.979929415847386E+08, -1.338258063435704E+07,
2459804.500000000, A.D. 2022-Aug-13 00:00:00.0000, 5.380980553314656E+07, -7.970812065082730E+08, -1.244564971069926E+07,
2459811.500000000, A.D. 2022-Aug-20 00:00:00.0000, 6.141462107780145E+07, -7.960935811886461E+08, -1.150753285974425E+07,
2459818.500000000, A.D. 2022-Aug-27 00:00:00.0000, 6.901352888490960E+07, -7.950300320632508E+08, -1.056831759688306E+07,
2459825.500000000, A.D. 2022-Sep-03 00:00:00.0000, 7.660579400943287E+07, -7.938905321667401E+08, -9.628091834511042E+06,
2459832.500000000, A.D. 2022-Sep-10 00:00:00.0000, 8.419067946011832E+07, -7.926750611830062E+08, -8.686943865582347E+06,
2459839.500000000, A.D. 2022-Sep-17 00:00:00.0000, 9.176744611712843E+07, -7.913836055982493E+08, -7.744962353970110E+06,
2459846.500000000, A.D. 2022-Sep-24 00:00:00.0000, 9.933535270984721E+07, -7.900161590059953E+08, -6.802236341360629E+06,
2459853.500000000, A.D. 2022-Oct-01 00:00:00.0000, 1.068936560949013E+08, -7.885727225863869E+08, -5.858855294629753E+06,
2459860.500000000, A.D. 2022-Oct-08 00:00:00.0000, 1.144416122417256E+08, -7.870533052377661E+08, -4.914909188571870E+06,
2459867.500000000, A.D. 2022-Oct-15 00:00:00.0000, 1.219784769937938E+08, -7.854579221614439E+08, -3.970488440737844E+06,
2459874.500000000, A.D. 2022-Oct-22 00:00:00.0000, 1.295035044238439E+08, -7.837865935834534E+08, -3.025683636143744E+06,
2459881.500000000, A.D. 2022-Oct-29 00:00:00.0000, 1.370159452809625E+08, -7.820393462065995E+08, -2.080585483202040E+06,
2459888.500000000, A.D. 2022-Nov-05 00:00:00.0000, 1.445150476289795E+08, -7.802162146517135E+08, -1.135284969708145E+06,
2459895.500000000, A.D. 2022-Nov-12 00:00:00.0000, 1.520000577113511E+08, -7.783172416210527E+08, -1.898734353220463E+05,
2459902.500000000, A.D. 2022-Nov-19 00:00:00.0000, 1.594702203230803E+08, -7.763424777380042E+08, 7.555574272858500E+05,
2459909.500000000, A.D. 2022-Nov-26 00:00:00.0000, 1.669247789518009E+08, -7.742919814603742E+08, 1.700915585965037E+06,
2459916.500000000, A.D. 2022-Dec-03 00:00:00.0000, 1.743629758539588E+08, -7.721658190786728E+08, 2.646108681026697E+06,
2459923.500000000, A.D. 2022-Dec-10 00:00:00.0000, 1.817840521115620E+08, -7.699640647805128E+08, 3.591044032895803E+06,
2459930.500000000, A.D. 2022-Dec-17 00:00:00.0000, 1.891872476942288E+08, -7.676868008059151E+08, 4.535628641140044E+06,
2459937.500000000, A.D. 2022-Dec-24 00:00:00.0000, 1.965718016360261E+08, -7.653341177591889E+08, 5.479769159466624E+06,
2459944.500000000, A.D. 2022-Dec-31 00:00:00.0000, 2.039369526848953E+08, -7.629061149698671E+08, 6.423371822708964E+06,
2459951.500000000, A.D. 2023-Jan-07 00:00:00.0000, 2.112819405475059E+08, -7.604028999404280E+08, 7.366342393246472E+06,
2459958.500000000, A.D. 2023-Jan-14 00:00:00.0000, 2.186060057625174E+08, -7.578245863841573E+08, 8.308586347966373E+06,
2459965.500000000, A.D. 2023-Jan-21 00:00:00.0000, 2.259083875574291E+08, -7.551712940257273E+08, 9.250009105704218E+06,
2459972.500000000, A.D. 2023-Jan-28 00:00:00.0000, 2.331883233570684E+08, -7.524431503599184E+08, 1.019051594280267E+07,
2459979.500000000, A.D. 2023-Feb-04 00:00:00.0000, 2.404450497352413E+08, -7.496402913408602E+08, 1.113001186344129E+07,
2459986.500000000, A.D. 2023-Feb-11 00:00:00.0000, 2.476778030142986E+08, -7.467628611954340E+08, 1.206840157369927E+07,
2459993.500000000, A.D. 2023-Feb-18 00:00:00.0000, 2.548858194493475E+08, -7.438110121838763E+08, 1.300558949800715E+07,
2460000.500000000, A.D. 2023-Feb-25 00:00:00.0000, 2.620683352599577E+08, -7.407849044691287E+08, 1.394147980080527E+07,
2460007.500000000, A.D. 2023-Mar-04 00:00:00.0000, 2.692245866116707E+08, -7.376847060758022E+08, 1.487597640572417E+07,
2460014.500000000, A.D. 2023-Mar-11 00:00:00.0000, 2.763538095760955E+08, -7.345105929379082E+08, 1.580898300988623E+07,
2460021.500000000, A.D. 2023-Mar-18 00:00:00.0000, 2.834552401168635E+08, -7.312627490844735E+08, 1.674040308516216E+07,
2460028.500000000, A.D. 2023-Mar-25 00:00:00.0000, 2.905281143050119E+08, -7.279413670099350E+08, 1.767013984409082E+07,
2460035.500000000, A.D. 2023-Apr-01 00:00:00.0000, 2.975716691885732E+08, -7.245466478357072E+08, 1.859809616389936E+07,
2460042.500000000, A.D. 2023-Apr-08 00:00:00.0000, 3.045851437011568E+08, -7.210788000378507E+08, 1.952417462539631E+07,
2460049.500000000, A.D. 2023-Apr-15 00:00:00.0000, 3.115677772725235E+08, -7.175380378468429E+08, 2.044827779088023E+07,
2460056.500000000, A.D. 2023-Apr-22 00:00:00.0000, 3.185188079503283E+08, -7.139245823710549E+08, 2.137030830579862E+07,
2460063.500000000, A.D. 2023-Apr-29 00:00:00.0000, 3.254374727682493E+08, -7.102386631908438E+08, 2.229016875742051E+07,
2460070.500000000, A.D. 2023-May-06 00:00:00.0000, 3.323230086004302E+08, -7.064805186420925E+08, 2.320776159751707E+07,
2460077.500000000, A.D. 2023-May-13 00:00:00.0000, 3.391746525255073E+08, -7.026503956827095E+08, 2.412298914553225E+07,
2460084.500000000, A.D. 2023-May-20 00:00:00.0000, 3.459916419343804E+08, -6.987485498330929E+08, 2.503575361046329E+07,
2460091.500000000, A.D. 2023-May-27 00:00:00.0000, 3.527732145752159E+08, -6.947752452198988E+08, 2.594595711106685E+07,
2460098.500000000, A.D. 2023-Jun-03 00:00:00.0000, 3.595186085932612E+08, -6.907307546970257E+08, 2.685350169096336E+07,
2460105.500000000, A.D. 2023-Jun-10 00:00:00.0000, 3.662270625892436E+08, -6.866153600574731E+08, 2.775828932504529E+07,
2460112.500000000, A.D. 2023-Jun-17 00:00:00.0000, 3.728978157854080E+08, -6.824293523960626E+08, 2.866022190382832E+07,
2460119.500000000, A.D. 2023-Jun-24 00:00:00.0000, 3.795301086192487E+08, -6.781730325673444E+08, 2.955920117069289E+07,
2460126.500000000, A.D. 2023-Jul-01 00:00:00.0000, 3.861231840181423E+08, -6.738467109106319E+08, 3.045512865627664E+07,
2460133.500000000, A.D. 2023-Jul-08 00:00:00.0000, 3.926762876808594E+08, -6.694507054202286E+08, 3.134790583060229E+07,
2460140.500000000, A.D. 2023-Jul-15 00:00:00.0000, 3.991886660889695E+08, -6.649853411905572E+08, 3.223743435867172E+07,
$$EOE